SAR-LUPE 2              
1 31797U 07030A   26199.54646904  .00009676  00000+0  15077-3 0  9992
2 31797  98.1068 307.9820 0004980 208.9265 151.1711 15.54119882 61809
SAPPHIRE                
1 39088U 13009C   26199.60322459  .00000028  00000+0  24674-4 0  9995
2 39088  98.4278  18.3154 0011787 150.2270 209.9589 14.35248085701089
PRAETORIAN SDA_602      
1 65565U 25203A   26199.32723746  .00000061  00000+0  44579-4 0  9999
2 65565  81.3048 341.9371 0007113 110.4814 249.7106 13.83888266 43001
PRAETORIAN SDA_603      
1 65566U 25203B   26199.64453894  .00000088  00000+0  68725-4 0  9997
2 65566  81.3055 341.5647 0010746 106.7279 253.5058 13.83961684 43051
PRAETORIAN SDA_604      
1 65567U 25203C   26198.88859969  .00000045  00000+0  30092-4 0  9995
2 65567  81.3069 342.7246 0006623 115.1402 245.0442 13.83050296 42922
PRAETORIAN SDA_605      
1 65568U 25203D   26199.64368692  .00000063  00000+0  46865-4 0  9994
2 65568  81.3035 341.6655 0009370 105.1085 255.1108 13.83200440 43049
PRAETORIAN SDA_606      
1 65569U 25203E   26199.62886113  .00000033  00000+0  18886-4 0  9995
2 65569  81.3072 341.9186 0007243 108.3083 251.8862 13.83200182 43035
PRAETORIAN SDA_607      
1 65570U 25203F   26199.40091554  .00000104  00000+0  83163-4 0  9999
2 65570  81.3055 341.7461 0010019 106.8166 253.4090 13.83759122 43025
PRAETORIAN SDA_608      
1 65571U 25203G   26199.67251146  .00000048  00000+0  32638-4 0  9992
2 65571  81.3025 341.6569 0007128 112.1578 248.0336 13.83819689 43045
PRAETORIAN SDA_609      
1 65572U 25203H   26199.66850617  .00000086  00000+0  66438-4 0  9997
2 65572  81.3067 341.6375 0008051 106.5631 253.6411 13.84212212 43057
PRAETORIAN SDA_610      
1 65573U 25203J   26199.36586699  .00000072  00000+0  54743-4 0  9992
2 65573  81.3025 341.9053 0007869 112.2307 247.9684 13.83528563 43009
PRAETORIAN SDA_611      
1 65574U 25203K   26199.37527567 -.00000068  00000+0 -72527-4 0  9990
2 65574  81.3032 342.0800 0006788 116.8739 243.3111 13.83311488 42996
PRAETORIAN SDA_612      
1 65575U 25203L   26199.10925404  .00000107  00000+0  83574-4 0  9990
2 65575  81.3048 341.8370 0010398 107.9268 252.3024 13.85041135 42997
PRAETORIAN SDA_613      
1 65576U 25203M   26199.39427406  .00000052  00000+0  36829-4 0  9991
2 65576  81.3016 342.0841 0006809 107.8483 252.3416 13.82767988 42992
PRAETORIAN SDA_614      
1 65577U 25203N   26199.39328521  .00000042  00000+0  26387-4 0  9997
2 65577  81.3031 341.6590 0008260 105.7281 254.4788 13.84778799 43037
PRAETORIAN SDA_615      
1 65578U 25203P   26199.16103592  .00000244  00000+0  20764-3 0  9998
2 65578  81.3040 341.8574 0010239 106.6728 253.5554 13.84438773 42997
PRAETORIAN SDA_616      
1 65579U 25203Q   26199.66474606  .00000019  00000+0  64383-5 0  9998
2 65579  81.3079 341.9790 0006590 114.2797 245.9049 13.83270038 43034
PRAETORIAN SDA_617      
1 65580U 25203R   26199.32734503  .00000053  00000+0  37132-4 0  9997
2 65580  81.3054 342.1189 0008507 106.2229 253.9864 13.83152433 42991
PRAETORIAN SDA_618      
1 65581U 25203S   26199.63481136  .00000221  00000+0  18698-3 0  9995
2 65581  81.3043 341.3519 0010847 108.7347 251.4988 13.84225590 43061
PRAETORIAN SDA_619      
1 65582U 25203T   26198.88792115  .00000131  00000+0  10778-3 0  9995
2 65582  81.3064 342.3740 0009316 107.8251 252.3923 13.83806125 43578
PRAETORIAN SDA_620      
1 65583U 25203U   26199.35819442  .00000105  00000+0  85151-4 0  9991
2 65583  81.3048 341.9740 0008660 104.2514 255.9604 13.83207948 43001
PRAETORIAN SDA_621      
1 65584U 25203V   26199.32358598  .00000050  00000+0  34113-4 0  9990
2 65584  81.3037 341.9027 0008520 101.5116 258.6998 13.83804076 43002
PRAETORIAN SDA_601      
1 65585U 25203W   26198.87444836  .00000282  00000+0  24693-3 0  9999
2 65585  81.3063 342.6494 0006654 118.4692 241.7135 13.83170958 42921
VICTUS HAZE PUMA        
1 69646U 26142A   26198.28484869  .00002209  00000+0  10157-3 0  9990
2 69646  97.4460  95.5636 0026410 259.4735 100.3525 15.21130484  4240
